{
  "type": "FeatureCollection",
  "features": [
    {
      "type": "Feature",
      "properties": {
        "norad_id": 40233,
        "name": "COSMOS 2251 DEB",
        "group": "cosmos-2251-debris",
        "lat": -42.57117584289973,
        "lon": -88.02770899648549,
        "alt_km": 696.4256370081821,
        "timestamp": "2025-12-26T13:39:19.378396+00:00",
        "meta_object_name": "COSMOS 2251 DEB",
        "meta_object_id": "1993-036BVN",
        "meta_epoch": "2025-12-25T05:21:19.677024",
        "meta_mean_motion": 14.58549928,
        "meta_eccentricity": 0.004418,
        "meta_inclination": 73.9403,
        "meta_ra_of_asc_node": 79.204,
        "meta_arg_of_pericenter": 151.4765,
        "meta_mean_anomaly": 208.8831,
        "meta_ephemeris_type": 0,
        "meta_classification_type": "U",
        "meta_norad_cat_id": 40233,
        "meta_element_set_no": 999,
        "meta_rev_at_epoch": 59319,
        "meta_bstar": 0.0011641,
        "meta_mean_motion_dot": 5.46e-05,
        "meta_mean_motion_ddot": 0,
        "tle_line1": "1 40233U 93036BVN 25359.22314441  .00005460  00000+0  11641-2 0  9997",
        "tle_line2": "2 40233  73.9403  79.2040 0044180 151.4765 208.8831 14.58549928593190"
      },
      "geometry": {
        "type": "Point",
        "coordinates": [
          -88.02770899648549,
          -42.57117584289973
        ]
      }
    },
    {
      "type": "Feature",
      "properties": {
        "norad_id": 40236,
        "name": "COSMOS 2251 DEB",
        "group": "cosmos-2251-debris",
        "lat": 66.40684357780665,
        "lon": -100.65425030912294,
        "alt_km": 1251.9116979547289,
        "timestamp": "2025-12-26T13:39:19.378406+00:00",
        "meta_object_name": "COSMOS 2251 DEB",
        "meta_object_id": "1993-036BVR",
        "meta_epoch": "2025-12-07T17:52:23.026080",
        "meta_mean_motion": 13.24639967,
        "meta_eccentricity": 0.05366128,
        "meta_inclination": 73.5349,
        "meta_ra_of_asc_node": 151.6266,
        "meta_arg_of_pericenter": 32.3576,
        "meta_mean_anomaly": 330.9258,
        "meta_ephemeris_type": 0,
        "meta_classification_type": "U",
        "meta_norad_cat_id": 40236,
        "meta_element_set_no": 999,
        "meta_rev_at_epoch": 53558,
        "meta_bstar": 0.0015786255,
        "meta_mean_motion_dot": 1.455e-05,
        "meta_mean_motion_ddot": 0,
        "tle_line1": "1 40236U 93036BVR 25341.74471095  .00001455  00000+0  15786-2 0  9991",
        "tle_line2": "2 40236  73.5349 151.6266 0536612  32.3576 330.9258 13.24639967535580"
      },
      "geometry": {
        "type": "Point",
        "coordinates": [
          -100.65425030912294,
          66.40684357780665
        ]
      }
    },
    {
      "type": "Feature",
      "properties": {
        "norad_id": 40238,
        "name": "COSMOS 2251 DEB",
        "group": "cosmos-2251-debris",
        "lat": -34.1319881254793,
        "lon": -126.41509293782306,
        "alt_km": 1545.013978995522,
        "timestamp": "2025-12-26T13:39:19.378417+00:00",
        "meta_object_name": "COSMOS 2251 DEB",
        "meta_object_id": "1993-036BVT",
        "meta_epoch": "2025-12-24T09:50:08.146464",
        "meta_mean_motion": 13.25148444,
        "meta_eccentricity": 0.05498783,
        "meta_inclination": 73.9883,
        "meta_ra_of_asc_node": 45.6762,
        "meta_arg_of_pericenter": 15.0985,
        "meta_mean_anomaly": 346.58,
        "meta_ephemeris_type": 0,
        "meta_classification_type": "U",
        "meta_norad_cat_id": 40238,
        "meta_element_set_no": 999,
        "meta_rev_at_epoch": 54191,
        "meta_bstar": 0.0017336803,
        "meta_mean_motion_dot": 1.683e-05,
        "meta_mean_motion_ddot": 0,
        "tle_line1": "1 40238U 93036BVT 25358.40981651  .00001683  00000+0  17337-2 0  9995",
        "tle_line2": "2 40238  73.9883  45.6762 0549878  15.0985 346.5800 13.25148444541918"
      },
      "geometry": {
        "type": "Point",
        "coordinates": [
          -126.41509293782306,
          -34.1319881254793
        ]
      }
    },
    {
      "type": "Feature",
      "properties": {
        "norad_id": 40239,
        "name": "COSMOS 2251 DEB",
        "group": "cosmos-2251-debris",
        "lat": -4.4166989677257575,
        "lon": -111.91331320110402,
        "alt_km": 629.4098840044544,
        "timestamp": "2025-12-26T13:39:19.378427+00:00",
        "meta_object_name": "COSMOS 2251 DEB",
        "meta_object_id": "1993-036BVU",
        "meta_epoch": "2025-12-23T23:20:18.364128",
        "meta_mean_motion": 14.62039549,
        "meta_eccentricity": 0.008546,
        "meta_inclination": 74.0319,
        "meta_ra_of_asc_node": 254.3246,
        "meta_arg_of_pericenter": 2.8488,
        "meta_mean_anomaly": 11.8068,
        "meta_ephemeris_type": 0,
        "meta_classification_type": "U",
        "meta_norad_cat_id": 40239,
        "meta_element_set_no": 999,
        "meta_rev_at_epoch": 59775,
        "meta_bstar": 0.00037675,
        "meta_mean_motion_dot": 1.96e-05,
        "meta_mean_motion_ddot": 0,
        "tle_line1": "1 40239U 93036BVU 25357.97243477  .00001960  00000+0  37675-3 0  9990",
        "tle_line2": "2 40239  74.0319 254.3246 0085460   2.8488  11.8068 14.62039549597753"
      },
      "geometry": {
        "type": "Point",
        "coordinates": [
          -111.91331320110402,
          -4.4166989677257575
        ]
      }
    },
    {
      "type": "Feature",
      "properties": {
        "norad_id": 40792,
        "name": "COSMOS 2251 DEB",
        "group": "cosmos-2251-debris",
        "lat": 70.31657285633376,
        "lon": 73.86937167646043,
        "alt_km": 653.7381428678736,
        "timestamp": "2025-12-26T13:39:19.378437+00:00",
        "meta_object_name": "COSMOS 2251 DEB",
        "meta_object_id": "1993-036BVV",
        "meta_epoch": "2025-12-21T09:02:29.575680",
        "meta_mean_motion": 14.67648102,
        "meta_eccentricity": 0.00147404,
        "meta_inclination": 74.0452,
        "meta_ra_of_asc_node": 30.785,
        "meta_arg_of_pericenter": 133.0098,
        "meta_mean_anomaly": 243.0806,
        "meta_ephemeris_type": 0,
        "meta_classification_type": "U",
        "meta_norad_cat_id": 40792,
        "meta_element_set_no": 999,
        "meta_rev_at_epoch": 63311,
        "meta_bstar": 0.00064575886,
        "meta_mean_motion_dot": 3.648e-05,
        "meta_mean_motion_ddot": 0,
        "tle_line1": "1 40792U 93036BVV 25355.37673120  .00003648  00000+0  64576-3 0  9993",
        "tle_line2": "2 40792  74.0452  30.7850 0014740 133.0098 243.0806 14.67648102633115"
      },
      "geometry": {
        "type": "Point",
        "coordinates": [
          73.86937167646043,
          70.31657285633376
        ]
      }
    },
    {
      "type": "Feature",
      "properties": {
        "norad_id": 40794,
        "name": "COSMOS 2251 DEB",
        "group": "cosmos-2251-debris",
        "lat": -27.4005784181418,
        "lon": 87.74301560079404,
        "alt_km": 589.1216808284116,
        "timestamp": "2025-12-26T13:39:19.378447+00:00",
        "meta_object_name": "COSMOS 2251 DEB",
        "meta_object_id": "1993-036BVX",
        "meta_epoch": "2025-12-24T01:30:51.702624",
        "meta_mean_motion": 14.94031865,
        "meta_eccentricity": 0.00097276,
        "meta_inclination": 73.9771,
        "meta_ra_of_asc_node": 101.3724,
        "meta_arg_of_pericenter": 255.1473,
        "meta_mean_anomaly": 282.9356,
        "meta_ephemeris_type": 0,
        "meta_classification_type": "U",
        "meta_norad_cat_id": 40794,
        "meta_element_set_no": 999,
        "meta_rev_at_epoch": 62093,
        "meta_bstar": 0.0045652942,
        "meta_mean_motion_dot": 0.00049073,
        "meta_mean_motion_ddot": 0,
        "tle_line1": "1 40794U 93036BVX 25358.06309841  .00049073  00000+0  45653-2 0  9996",
        "tle_line2": "2 40794  73.9771 101.3724 0009727 255.1473 282.9356 14.94031865620936"
      },
      "geometry": {
        "type": "Point",
        "coordinates": [
          87.74301560079404,
          -27.4005784181418
        ]
      }
    },
    {
      "type": "Feature",
      "properties": {
        "norad_id": 40796,
        "name": "COSMOS 2251 DEB",
        "group": "cosmos-2251-debris",
        "lat": 37.748819387130546,
        "lon": -77.99197819454933,
        "alt_km": 632.5589301388336,
        "timestamp": "2025-12-26T13:39:19.378457+00:00",
        "meta_object_name": "COSMOS 2251 DEB",
        "meta_object_id": "1993-036BVZ",
        "meta_epoch": "2025-12-25T14:24:28.554336",
        "meta_mean_motion": 14.81886301,
        "meta_eccentricity": 0.0055947,
        "meta_inclination": 74.0131,
        "meta_ra_of_asc_node": 116.7484,
        "meta_arg_of_pericenter": 251.1675,
        "meta_mean_anomaly": 124.4189,
        "meta_ephemeris_type": 0,
        "meta_classification_type": "U",
        "meta_norad_cat_id": 40796,
        "meta_element_set_no": 999,
        "meta_rev_at_epoch": 76349,
        "meta_bstar": 0.0011083,
        "meta_mean_motion_dot": 8.987e-05,
        "meta_mean_motion_ddot": 0,
        "tle_line1": "1 40796U 93036BVZ 25359.60033049  .00008987  00000+0  11083-2 0  9992",
        "tle_line2": "2 40796  74.0131 116.7484 0055947 251.1675 124.4189 14.81886301763490"
      },
      "geometry": {
        "type": "Point",
        "coordinates": [
          -77.99197819454933,
          37.748819387130546
        ]
      }
    }
  ]
}